ORBCOMM FM06            
1 25118U 97084G   26199.55814941  .00000381  00000+0  14155-3 0  9999
2 25118  45.0132 261.6839 0001739 243.3640 256.7954 14.47630839498937
ORBCOMM FM04            
1 25159U 98007C   26199.88653127  .00000326  00000+0  15712-3 0  9992
2 25159 107.9632 234.6640 0041992 270.6764  88.9565 14.35788137481140
ORBCOMM FM19            
1 25415U 98046C   26199.79510383  .00000364  00000+0  16091-3 0  9999
2 25415  44.9939  93.3097 0003239  86.5201 322.8212 14.39545029461336
ORBCOMM FM20            
1 25416U 98046D   26199.13528686  .00000282  00000+0  13871-3 0  9995
2 25416  44.9939 104.7114 0001161  17.6041 342.4847 14.38102815461246
ORBCOMM FM27            
1 25481U 98053G   26199.00876245  .00000298  00000+0  14088-3 0  9996
2 25481  45.0034 188.9543 0002305 301.0141  59.0482 14.39187661454676
ORBCOMM FM32            
1 25982U 99065C   26199.85009599  .00000237  00000+0  12624-3 0  9996
2 25982  45.0160  23.3615 0006034 209.3060 150.7450 14.37170930391647
ORBCOMM FM109           
1 40086U 14040A   26199.32828541  .00000043  00000+0  45311-4 0  9991
2 40086  47.0031 304.2514 0001413 334.8943  25.1874 14.58873136638894
ORBCOMM FM110           
1 41182U 15081D   26199.74388898  .00000150  00000+0  67986-4 0  9998
2 41182  47.0001 212.2290 0003700 236.8284 123.2247 14.58920686562239
ORBCOMM FM118           
1 41183U 15081E   26199.43593014  .00000034  00000+0  43470-4 0  9996
2 41183  47.0024 214.0245 0003072 200.6027 159.4736 14.58905338562298
ORBCOMM FM112           
1 41184U 15081F   26199.85075600  .00000245  00000+0  88027-4 0  9990
2 41184  46.9987 120.5123 0003475 344.3892  15.6886 14.58941434563572
ORBCOMM FM113           
1 41185U 15081G   26199.89698218  .00000114  00000+0  60367-4 0  9993
2 41185  47.0003 120.6869 0002017 335.8421  24.2370 14.58884152563562
ORBCOMM FM108           
1 41187U 15081J   26199.58496943  .00000195  00000+0  77500-4 0  9998
2 41187  47.0057  33.7439 0002435 335.1382  24.9386 14.58913023564669
ORBCOMM FM117           
1 41188U 15081K   26199.96164321  .00000210  00000+0  80536-4 0  9994
2 41188  47.0021  30.5891 0002807 344.8105  15.2696 14.58900501564766
ORBCOMM FM116           
1 41189U 15081L   26199.80478909  .00000134  00000+0  64433-4 0  9991
2 41189  47.0017 121.1198 0001663 239.3508 120.7214 14.58908627563554
